{"type":"FeatureCollection","features":[{"type":"Feature","properties":{"nom":"Royaume de France","annee":1650,"borderprecision":3},"geometry":{"type":"MultiPolygon","coordinates":[[[[3.039043066587349,42.868603739442875],[2.948875128434636,42.882970675163364],[2.824998419760575,42.849753178372794],[2.701121711086515,42.73002220618929],[2.489624891399095,42.71892429041347],[2.48056074198392,42.68561863167925],[2.272085305434892,42.69006041846055],[2.102887849684956,42.61450685035179],[1.728236340524384,42.501004432498135],[1.731257723662776,42.54553979026787],[1.79168538643061,42.578920473885596],[1.755428788769909,42.596716202383234],[1.577167183604798,42.64785062076061],[1.45631185806913,42.61895371848023],[1.31637314846309,42.614476211868094],[1.307450089064819,42.63517340274219],[0.744199428168518,42.77189215274219],[0.584142002669555,42.77189215274219],[0.591923627463562,42.628333650544924],[0.347843679991943,42.63517340274219],[0.196265372840148,42.607825838044924],[0.179550382701141,42.66251715274219],[-0.165626824440974,42.64883764834766],[-0.203663793,42.70031317325],[-0.216141254248637,42.717200838044924],[-0.409914609583634,42.785567842439455],[-0.46883657256009,42.75139196963672],[-0.586789485605973,42.765060029939455],[-0.611982133778351,42.73087652774219],[-0.840018358620423,42.90865286441211],[-0.907353666218537,42.881297670320315],[-1.397272315415162,43.031756959871096],[-1.44755240956189,42.98387869449024],[-1.515127864273804,42.997562013582034],[-1.557671156319397,43.04543264956836],[-1.465651359947937,43.15488775821094],[-1.491382804306763,43.20962103457813],[-1.702391829880494,43.19593771548633],[-1.914577808769959,43.3054157123125],[-1.746070232781189,43.36016043277149],[-1.561407771500367,43.524425111726565],[-1.314379182251709,44.558963380769534],[-1.135849919708985,44.600101076082034],[-1.230320539864319,44.730411134675784],[-1.331778016480225,44.61382635684375],[-1.275514092835206,45.12873037906055],[-1.175191727074402,45.50050314517383],[-1.123440351876038,45.431617341951174],[-0.900364187153595,45.29391058535938],[-0.814226653965729,45.12184103579883],[-0.728486028107422,45.01864203067188],[-0.854702380093354,45.321448884919924],[-1.138394918831604,45.58316382022266],[-1.247395124825257,45.688148103669924],[-1.236505594643372,45.8000446185625],[-1.075199690254944,46.01461752505664],[-1.165981498154419,46.18368109317188],[-1.256056633385437,46.30683096499805],[-1.402668443115967,46.403934083894534],[-1.710726466568726,46.44879110904102],[-1.942478146942872,46.70579870791797],[-2.129660334976929,46.85084494204883],[-2.004645553025025,47.04250296206836],[-2.109477606209534,47.124042116121096],[-2.263749804886597,47.18288382144336],[-2.493711915406006,47.24692114444141],[-2.576483931931275,47.324866853669924],[-2.465543475540894,47.49438437075977],[-2.613652196320313,47.572249971345705],[-2.842474189194458,47.49190481753711],[-3.062696423920411,47.60393866153125],[-3.433526244553345,47.71681173892383],[-3.711868014725464,47.79814871402149],[-3.858102050217408,47.79180868716602],[-3.954837766083497,47.90433844180469],[-4.364373650940674,47.82931097598438],[-4.390935388001221,47.94184836001758],[-4.510127511414307,47.99813040347461],[-4.675397363098877,48.01689489932422],[-4.700306382569092,48.06380423159961],[-4.312866177948731,48.10133322329883],[-4.350984063538331,48.204566560701174],[-4.587968316468018,48.25149496646289],[-4.388901677521485,48.298438631013674],[-4.350201573761719,48.390506349519534],[-4.473793950470704,48.382937990144534],[-4.592021432312745,48.392318330720705],[-4.779634442719239,48.354774080232424],[-4.761963334473389,48.55200155825977],[-4.625704255493897,48.546668611482424],[-4.488299336823243,48.61226614566211],[-4.251477208527344,48.65191229434375],[-3.998872962387818,48.73053701968555],[-3.902217355164307,48.64596136660938],[-3.821306434067505,48.721149049714846],[-3.607873406800049,48.692950807527346],[-3.557670083435791,48.810077272371096],[-3.435057845505494,48.83645971866016],[-3.091225352677125,48.87155111880664],[-2.914459433945435,48.70678671450977],[-2.79053541699292,48.58958014102344],[-2.636378016861695,48.55200155825977],[-2.342885461243409,48.67414816470508],[-2.200072136315125,48.598983369783205],[-2.07596763649823,48.65615805240039],[-1.870566811951416,48.711742006257815],[-1.857612696083802,48.60836752505664],[-1.591356840523499,48.63750036807422],[-1.456587758454102,48.683551393464846],[-1.575547900589722,48.76814230533008],[-1.588412251862305,48.88095053286914],[-1.563408580216187,49.036239229158205],[-1.579779472740906,49.2290111407793],[-1.638999786766785,49.219607912019534],[-1.891543593796509,49.526351533845705],[-1.941284146698731,49.70930441470508],[-1.52424713650586,49.65277060122852],[-1.250969496163147,49.69987829776172],[-1.288660493286866,49.520972810701174],[-1.177143421562928,49.33254965396289],[-1.023191001805085,49.39845999331836],[-0.464948442372101,49.35137899966602],[-0.239364930036086,49.28548773379688],[-0.203663793,49.291812501863284],[0.032870042530281,49.33370550723438],[0.330848249999267,49.45495565982227],[0.090372207967025,49.51055487246875],[0.115054044333679,49.60227545352344],[0.189372840729934,49.681026063875],[0.528559717742187,49.8258014545],[0.868757519332153,49.90724905581836],[1.274518880454284,50.00430258365039],[1.416228327361328,50.10984381289844],[1.551989111510498,50.22880896182422],[1.528296861258728,50.57772787661914],[1.58892014941333,50.821883760408205],[1.796177011925293,50.92141446442835],[1.825507855919507,50.24268837026159],[1.986621837213834,50.21967208721954],[1.986621837213834,50.08157438896726],[2.14773581850816,50.058558105925215],[2.400914931970674,50.196655804177496],[2.677110328475234,50.1506232380934],[2.907273158895701,49.94347669071498],[3.482680234946868,49.920460407672934],[3.820330011313015,50.039445521196306],[4.25521547314937,49.88723560955358],[5.361129202599225,49.69675577726925],[5.909256214734315,49.200859868256885],[5.903866258970996,49.19576772523377],[5.611623228616965,49.209684060012535],[5.722953906847073,48.959190033994794],[5.87603358941347,49.070520712224905],[6.00128060242234,48.90352469487974],[5.83428458507718,48.77827768187087],[6.015196937201104,48.653030668862],[5.945615263307287,48.34687130372921],[6.237858293661318,48.29120596461415],[6.251774628440081,47.95721392992383],[6.098694945873683,48.02679560381765],[6.056945941537394,47.95721392992383],[5.95953159808605,47.98504659948136],[5.95953159808605,47.80413424735743],[5.820368250298417,47.73455257346362],[5.917782593749759,47.59538922567598],[5.792535580740889,47.5118912170034],[5.778619245962126,47.358811534437],[5.736870241625835,47.233564521428136],[5.667288567732019,47.10831750841926],[5.793872737848062,46.99723694590705],[5.757015581895596,46.88666547804965],[5.646444114038196,46.84980832209718],[5.625539563395728,46.64907846072007],[5.739656950049963,46.59782978772308],[5.724926528903053,46.4799864185478],[5.645716162577157,46.4567227963447],[5.415587684817945,46.52417768198853],[5.268283473348847,46.31795178593179],[5.533431053993224,46.096995468728146],[5.533431053993224,46.008612941846685],[5.356666000230306,46.052804205287416],[5.356666000230306,45.876039151524495],[5.607083159727774,45.84657830923068],[5.823360340496054,45.39624171880529],[5.934538658337518,45.32212284024432],[5.946891804764347,45.26035710811017],[6.058070122605811,45.22329766882968],[6.033363829752153,45.334475986671144],[6.082776415459469,45.371535425951635],[6.144542147593617,45.32212284024432],[6.218661026154592,45.34682913309798],[6.26807361186191,45.32212284024432],[6.24336731900825,45.29741654739066],[6.280426758288739,45.19859137597602],[6.507319483367187,45.115707002595705],[6.665318045226318,44.95452078433399],[6.942603621093017,44.86865194888477],[7.003469976989013,44.71953543277149],[6.924694094268066,44.71501883120899],[6.782917532531005,44.54787405581836],[6.869778189269287,44.34917028994922],[6.786905761788741,44.296811686817485],[6.786905761788741,44.197986515402846],[6.836318347496059,44.11151449041504],[6.885730933203376,44.14857392969553],[6.935143518910694,44.1362207832687],[6.972202958191182,44.062101904707724],[6.996909251044841,44.04974875828089],[6.922790372483864,43.97562987971992],[6.959849811764352,43.91386414758577],[6.885730933203376,43.901511001158944],[6.922790372483864,43.81503897617114],[7.355150497422891,43.901511001158944],[7.397118601409179,43.76409491153125],[7.297616514769775,43.667300783113284],[6.923080000487548,43.44766577334766],[6.523014101592285,43.15085180850391],[6.331224951354248,43.11186941714649],[6.18777850588916,43.092288576082034],[5.828570398894531,43.020816408113284],[5.646554979888183,43.03331717105274],[5.434490236846191,43.103656373933596],[5.051816973296386,43.32809790225391],[4.909845861998779,43.366439424470705],[4.750594648925048,43.35325964541797],[4.646513971892578,43.320865236238284],[4.416764769164306,43.34614523501758],[4.078196081725341,43.48708685489063],[3.807468924132568,43.467227540925784],[3.478712830153686,43.31209524722461],[3.317868027297241,43.19595297427539],[3.067900213805419,42.944564424470705],[3.039043066587349,42.868603739442875]]]]}},{"type":"Feature","properties":{"nom":"Royaume de France","annee":1700,"borderprecision":3},"geometry":{"type":"MultiPolygon","coordinates":[[[[1.796177011925293,50.92141446442835],[1.825507855919507,50.24268837026159],[1.986621837213834,50.21967208721954],[1.986621837213834,50.08157438896726],[2.14773581850816,50.058558105925215],[2.400914931970674,50.196655804177496],[2.677110328475234,50.1506232380934],[2.907273158895701,49.94347669071498],[3.482680234946868,49.920460407672934],[3.820330011313015,50.039445521196306],[4.25521547314937,49.88723560955358],[5.361129202599225,49.69675577726925],[5.909256214734315,49.200859868256885],[5.903866258970996,49.19576772523377],[5.611623228616965,49.209684060012535],[5.722953906847073,48.959190033994794],[5.87603358941347,49.070520712224905],[6.00128060242234,48.90352469487974],[5.83428458507718,48.77827768187087],[6.015196937201104,48.653030668862],[5.945615263307287,48.34687130372921],[6.237858293661318,48.29120596461415],[6.251774628440081,47.95721392992383],[6.098694945873683,48.02679560381765],[6.056945941537394,47.95721392992383],[5.95953159808605,47.98504659948136],[5.95953159808605,47.80413424735743],[5.820368250298417,47.73455257346362],[5.917782593749759,47.59538922567598],[5.792535580740889,47.5118912170034],[5.778619245962126,47.358811534437],[5.736870241625835,47.233564521428136],[5.667288567732019,47.10831750841926],[5.793872737848062,46.99723694590705],[5.757015581895596,46.88666547804965],[5.646444114038196,46.84980832209718],[5.625539563395728,46.64907846072007],[5.739656950049963,46.59782978772308],[5.724926528903053,46.4799864185478],[5.645716162577157,46.4567227963447],[5.415587684817945,46.52417768198853],[5.268283473348847,46.31795178593179],[5.533431053993224,46.096995468728146],[5.533431053993224,46.008612941846685],[5.356666000230306,46.052804205287416],[5.356666000230306,45.876039151524495],[5.607083159727774,45.84657830923068],[5.823360340496054,45.39624171880529],[5.934538658337518,45.32212284024432],[5.946891804764347,45.26035710811017],[6.058070122605811,45.22329766882968],[6.033363829752153,45.334475986671144],[6.082776415459469,45.371535425951635],[6.144542147593617,45.32212284024432],[6.218661026154592,45.34682913309798],[6.26807361186191,45.32212284024432],[6.24336731900825,45.29741654739066],[6.280426758288739,45.19859137597602],[6.507319483367187,45.115707002595705],[6.665318045226318,44.95452078433399],[6.942603621093017,44.86865194888477],[7.003469976989013,44.71953543277149],[6.924694094268066,44.71501883120899],[6.782917532531005,44.54787405581836],[6.869778189269287,44.34917028994922],[6.786905761788741,44.296811686817485],[6.786905761788741,44.197986515402846],[6.836318347496059,44.11151449041504],[6.885730933203376,44.14857392969553],[6.935143518910694,44.1362207832687],[6.972202958191182,44.062101904707724],[6.996909251044841,44.04974875828089],[6.922790372483864,43.97562987971992],[6.959849811764352,43.91386414758577],[6.885730933203376,43.901511001158944],[6.922790372483864,43.81503897617114],[7.355150497422891,43.901511001158944],[7.397118601409179,43.76409491153125],[7.297616514769775,43.667300783113284],[6.923080000487548,43.44766577334766],[6.523014101592285,43.15085180850391],[6.331224951354248,43.11186941714649],[6.18777850588916,43.092288576082034],[5.828570398894531,43.020816408113284],[5.646554979888183,43.03331717105274],[5.434490236846191,43.103656373933596],[5.051816973296386,43.32809790225391],[4.909845861998779,43.366439424470705],[4.750594648925048,43.35325964541797],[4.646513971892578,43.320865236238284],[4.416764769164306,43.34614523501758],[4.078196081725341,43.48708685489063],[3.807468924132568,43.467227540925784],[3.478712830153686,43.31209524722461],[3.317868027297241,43.19595297427539],[3.067900213805419,42.944564424470705],[3.001891169158203,42.77080877871875],[3.045898947325927,42.53945501895313],[3.087081465331298,42.36864431949024],[2.936504158583862,42.40964087100391],[2.599267038909179,42.34814413638477],[2.581510099974853,42.28666266055469],[2.363173756209594,42.293494783357424],[2.171107086745483,42.38231619449024],[1.99367073496936,42.30715521426563],[1.876118454543334,42.31398733706836],[1.860095295516235,42.38231619449024],[1.709228429404479,42.42331274600391],[1.616605672446472,42.40964087100391],[1.448152098265869,42.37548025699024],[1.364396247473938,42.40964087100391],[1.348705086318237,42.53948172183399],[1.307450089064819,42.63517340274219],[0.744199428168518,42.77189215274219],[0.584142002669555,42.77189215274219],[0.591923627463562,42.628333650544924],[0.347843679991943,42.63517340274219],[0.196265372840148,42.607825838044924],[0.179550382701141,42.66251715274219],[-0.165626824440974,42.64883764834766],[-0.203663793,42.70031317325],[-0.216141254248637,42.717200838044924],[-0.409914609583634,42.785567842439455],[-0.46883657256009,42.75139196963672],[-0.586789485605973,42.765060029939455],[-0.611982133778351,42.73087652774219],[-0.840018358620423,42.90865286441211],[-0.907353666218537,42.881297670320315],[-1.397272315415162,43.031756959871096],[-1.44755240956189,42.98387869449024],[-1.515127864273804,42.997562013582034],[-1.557671156319397,43.04543264956836],[-1.465651359947937,43.15488775821094],[-1.491382804306763,43.20962103457813],[-1.702391829880494,43.19593771548633],[-1.914577808769959,43.3054157123125],[-1.746070232781189,43.36016043277149],[-1.561407771500367,43.524425111726565],[-1.314379182251709,44.558963380769534],[-1.135849919708985,44.600101076082034],[-1.230320539864319,44.730411134675784],[-1.331778016480225,44.61382635684375],[-1.275514092835206,45.12873037906055],[-1.175191727074402,45.50050314517383],[-1.123440351876038,45.431617341951174],[-0.900364187153595,45.29391058535938],[-0.814226653965729,45.12184103579883],[-0.728486028107422,45.01864203067188],[-0.854702380093354,45.321448884919924],[-1.138394918831604,45.58316382022266],[-1.247395124825257,45.688148103669924],[-1.236505594643372,45.8000446185625],[-1.075199690254944,46.01461752505664],[-1.165981498154419,46.18368109317188],[-1.256056633385437,46.30683096499805],[-1.402668443115967,46.403934083894534],[-1.710726466568726,46.44879110904102],[-1.942478146942872,46.70579870791797],[-2.129660334976929,46.85084494204883],[-2.004645553025025,47.04250296206836],[-2.109477606209534,47.124042116121096],[-2.263749804886597,47.18288382144336],[-2.493711915406006,47.24692114444141],[-2.576483931931275,47.324866853669924],[-2.465543475540894,47.49438437075977],[-2.613652196320313,47.572249971345705],[-2.842474189194458,47.49190481753711],[-3.062696423920411,47.60393866153125],[-3.433526244553345,47.71681173892383],[-3.711868014725464,47.79814871402149],[-3.858102050217408,47.79180868716602],[-3.954837766083497,47.90433844180469],[-4.364373650940674,47.82931097598438],[-4.390935388001221,47.94184836001758],[-4.510127511414307,47.99813040347461],[-4.675397363098877,48.01689489932422],[-4.700306382569092,48.06380423159961],[-4.312866177948731,48.10133322329883],[-4.350984063538331,48.204566560701174],[-4.587968316468018,48.25149496646289],[-4.388901677521485,48.298438631013674],[-4.350201573761719,48.390506349519534],[-4.473793950470704,48.382937990144534],[-4.592021432312745,48.392318330720705],[-4.779634442719239,48.354774080232424],[-4.761963334473389,48.55200155825977],[-4.625704255493897,48.546668611482424],[-4.488299336823243,48.61226614566211],[-4.251477208527344,48.65191229434375],[-3.998872962387818,48.73053701968555],[-3.902217355164307,48.64596136660938],[-3.821306434067505,48.721149049714846],[-3.607873406800049,48.692950807527346],[-3.557670083435791,48.810077272371096],[-3.435057845505494,48.83645971866016],[-3.091225352677125,48.87155111880664],[-2.914459433945435,48.70678671450977],[-2.79053541699292,48.58958014102344],[-2.636378016861695,48.55200155825977],[-2.342885461243409,48.67414816470508],[-2.200072136315125,48.598983369783205],[-2.07596763649823,48.65615805240039],[-1.870566811951416,48.711742006257815],[-1.857612696083802,48.60836752505664],[-1.591356840523499,48.63750036807422],[-1.456587758454102,48.683551393464846],[-1.575547900589722,48.76814230533008],[-1.588412251862305,48.88095053286914],[-1.563408580216187,49.036239229158205],[-1.579779472740906,49.2290111407793],[-1.638999786766785,49.219607912019534],[-1.891543593796509,49.526351533845705],[-1.941284146698731,49.70930441470508],[-1.52424713650586,49.65277060122852],[-1.250969496163147,49.69987829776172],[-1.288660493286866,49.520972810701174],[-1.177143421562928,49.33254965396289],[-1.023191001805085,49.39845999331836],[-0.464948442372101,49.35137899966602],[-0.239364930036086,49.28548773379688],[-0.203663793,49.291812501863284],[0.032870042530281,49.33370550723438],[0.330848249999267,49.45495565982227],[0.090372207967025,49.51055487246875],[0.115054044333679,49.60227545352344],[0.189372840729934,49.681026063875],[0.528559717742187,49.8258014545],[0.868757519332153,49.90724905581836],[1.274518880454284,50.00430258365039],[1.416228327361328,50.10984381289844],[1.551989111510498,50.22880896182422],[1.528296861258728,50.57772787661914],[1.58892014941333,50.821883760408205],[1.796177011925293,50.92141446442835]]]]}},{"type":"Feature","properties":{"nom":"Royaume de France","annee":1715,"borderprecision":3},"geometry":{"type":"MultiPolygon","coordinates":[[[[-1.135849919708985,44.600101076082034],[-1.230320539864319,44.730411134675784],[-1.331778016480225,44.61382635684375],[-1.275514092835206,45.12873037906055],[-1.175191727074402,45.50050314517383],[-1.123440351876038,45.431617341951174],[-0.900364187153595,45.29391058535938],[-0.814226653965729,45.12184103579883],[-0.728486028107422,45.01864203067188],[-0.854702380093354,45.321448884919924],[-1.138394918831604,45.58316382022266],[-1.247395124825257,45.688148103669924],[-1.236505594643372,45.8000446185625],[-1.075199690254944,46.01461752505664],[-1.165981498154419,46.18368109317188],[-1.256056633385437,46.30683096499805],[-1.402668443115967,46.403934083894534],[-1.710726466568726,46.44879110904102],[-1.942478146942872,46.70579870791797],[-2.129660334976929,46.85084494204883],[-2.004645553025025,47.04250296206836],[-2.109477606209534,47.124042116121096],[-2.263749804886597,47.18288382144336],[-2.493711915406006,47.24692114444141],[-2.576483931931275,47.324866853669924],[-2.465543475540894,47.49438437075977],[-2.613652196320313,47.572249971345705],[-2.842474189194458,47.49190481753711],[-3.062696423920411,47.60393866153125],[-3.433526244553345,47.71681173892383],[-3.711868014725464,47.79814871402149],[-3.858102050217408,47.79180868716602],[-3.954837766083497,47.90433844180469],[-4.364373650940674,47.82931097598438],[-4.390935388001221,47.94184836001758],[-4.510127511414307,47.99813040347461],[-4.675397363098877,48.01689489932422],[-4.700306382569092,48.06380423159961],[-4.312866177948731,48.10133322329883],[-4.350984063538331,48.204566560701174],[-4.587968316468018,48.25149496646289],[-4.388901677521485,48.298438631013674],[-4.350201573761719,48.390506349519534],[-4.473793950470704,48.382937990144534],[-4.592021432312745,48.392318330720705],[-4.779634442719239,48.354774080232424],[-4.761963334473389,48.55200155825977],[-4.625704255493897,48.546668611482424],[-4.488299336823243,48.61226614566211],[-4.251477208527344,48.65191229434375],[-3.998872962387818,48.73053701968555],[-3.902217355164307,48.64596136660938],[-3.821306434067505,48.721149049714846],[-3.607873406800049,48.692950807527346],[-3.557670083435791,48.810077272371096],[-3.435057845505494,48.83645971866016],[-3.091225352677125,48.87155111880664],[-2.914459433945435,48.70678671450977],[-2.79053541699292,48.58958014102344],[-2.636378016861695,48.55200155825977],[-2.342885461243409,48.67414816470508],[-2.200072136315125,48.598983369783205],[-2.07596763649823,48.65615805240039],[-1.870566811951416,48.711742006257815],[-1.857612696083802,48.60836752505664],[-1.591356840523499,48.63750036807422],[-1.456587758454102,48.683551393464846],[-1.575547900589722,48.76814230533008],[-1.588412251862305,48.88095053286914],[-1.563408580216187,49.036239229158205],[-1.579779472740906,49.2290111407793],[-1.638999786766785,49.219607912019534],[-1.891543593796509,49.526351533845705],[-1.941284146698731,49.70930441470508],[-1.52424713650586,49.65277060122852],[-1.250969496163147,49.69987829776172],[-1.288660493286866,49.520972810701174],[-1.177143421562928,49.33254965396289],[-1.023191001805085,49.39845999331836],[-0.464948442372101,49.35137899966602],[-0.239364930036086,49.28548773379688],[-0.203663793,49.291812501863284],[0.032870042530281,49.33370550723438],[0.330848249999267,49.45495565982227],[0.090372207967025,49.51055487246875],[0.115054044333679,49.60227545352344],[0.189372840729934,49.681026063875],[0.528559717742187,49.8258014545],[0.868757519332153,49.90724905581836],[1.274518880454284,50.00430258365039],[1.416228327361328,50.10984381289844],[1.551989111510498,50.22880896182422],[1.528296861258728,50.57772787661914],[1.58892014941333,50.821883760408205],[1.823555264083129,50.93456228824024],[2.030328068343383,51.006656251863284],[2.442595991698486,51.04803045840625],[2.522131952849609,51.09112127871875],[2.615729364958984,50.890216432527346],[2.755482468215209,50.73915823550586],[2.875059876052124,50.68182333560352],[2.938276085463745,50.713756166414065],[3.122844490615112,50.807132326082034],[3.191876682845336,50.730723939851565],[3.28275969943164,50.52432592959766],[3.370317253676635,50.4646068439043],[3.603379520980102,50.47003897281055],[3.674962076750976,50.334369264558596],[3.791464838591796,50.339786134675784],[4.050887617675048,50.31808813662891],[4.21956971606372,50.24215658755664],[4.14781621417163,50.13371618838672],[4.188459906188232,50.05494650454883],[4.156314882842285,49.965777955964846],[4.28462794741748,49.91097982974414],[4.467481646147949,49.94473227115039],[4.668095144835693,49.96037634463672],[4.754919085112792,50.10118826480274],[4.865410837737304,50.13371618838672],[4.81162408312915,49.965777955964846],[4.877066645232421,49.88479956241016],[4.859871897307617,49.78224142642383],[5.097706827727539,49.76065405459766],[5.251278433409912,49.674327455476565],[5.41808799227832,49.582618318513674],[5.475416693297607,49.480140291169924],[5.787845644561035,49.55865439029102],[5.823500189391357,49.50710638614063],[6.112331900206787,49.47865255923633],[6.367956194487792,49.47348364444141],[6.433043036071044,49.445331178621096],[6.625501665679199,49.30178793521289],[6.77724269351123,49.17690237613086],[6.954413923827392,49.20173605533008],[6.974740538207275,49.13656958194141],[7.284997973052246,49.164493165925784],[7.317378077117187,49.18621405215625],[7.422812018004638,49.183108888582034],[7.465429815856201,49.09933432193164],[7.670458349791748,49.05900915713672],[7.885707888213378,49.06520804019336],[8.15829566439746,48.97834738345508],[7.729077848998291,48.615619264558596],[7.704579386321289,48.519576631501955],[7.68064263781665,48.358523927644534],[7.536028418151123,48.19133719058399],[7.502136263457519,48.058272920564455],[7.543118509856445,48.02423056216602],[7.445963415709716,47.70879324527149],[7.506581816283447,47.60370596499805],[7.582543780679759,47.57865507740098],[7.429317508764821,47.46376703689873],[7.605594973992233,47.43221581524238],[7.400263057227677,47.247535680536615],[7.179997910152967,47.09271837319001],[6.985865916121021,46.962934516260674],[6.672268079607878,46.797066243195054],[6.452259787259738,46.80531829494892],[6.456203,46.775144],[6.107886,46.575919],[6.162595,46.545604],[6.068907,46.41689],[6.175338,46.367758],[6.101650727179121,46.28629852591467],[6.110606286829515,46.274721312996704],[6.074539510971815,46.25341761065727],[6.010111299433578,46.24040946060946],[5.941489252654296,46.175540529207034],[5.934538658337518,46.026252186573586],[5.860419779776541,46.026252186573586],[5.946891804764347,45.81624869731749],[5.897479219057029,45.74212981875652],[5.922185511910688,45.65565779376871],[5.909832365483858,45.50742003664676],[5.848066633349712,45.51977318307359],[5.823360340496054,45.39624171880529],[5.934538658337518,45.32212284024432],[5.946891804764347,45.26035710811017],[6.058070122605811,45.22329766882968],[6.033363829752153,45.334475986671144],[6.082776415459469,45.371535425951635],[6.144542147593617,45.32212284024432],[6.218661026154592,45.34682913309798],[6.26807361186191,45.32212284024432],[6.24336731900825,45.29741654739066],[6.280426758288739,45.19859137597602],[6.507319483367187,45.115707002595705],[6.665318045226318,44.95452078433399],[6.942603621093017,44.86865194888477],[7.003469976989013,44.71953543277149],[6.924694094268066,44.71501883120899],[6.782917532531005,44.54787405581836],[6.869778189269287,44.34917028994922],[6.786905761788741,44.296811686817485],[6.786905761788741,44.197986515402846],[6.836318347496059,44.11151449041504],[6.885730933203376,44.14857392969553],[6.935143518910694,44.1362207832687],[6.972202958191182,44.062101904707724],[6.996909251044841,44.04974875828089],[6.922790372483864,43.97562987971992],[6.959849811764352,43.91386414758577],[6.885730933203376,43.901511001158944],[6.922790372483864,43.81503897617114],[7.355150497422891,43.901511001158944],[7.397118601409179,43.76409491153125],[7.297616514769775,43.667300783113284],[6.923080000487548,43.44766577334766],[6.523014101592285,43.15085180850391],[6.331224951354248,43.11186941714649],[6.18777850588916,43.092288576082034],[5.828570398894531,43.020816408113284],[5.646554979888183,43.03331717105274],[5.434490236846191,43.103656373933596],[5.051816973296386,43.32809790225391],[4.909845861998779,43.366439424470705],[4.750594648925048,43.35325964541797],[4.646513971892578,43.320865236238284],[4.416764769164306,43.34614523501758],[4.078196081725341,43.48708685489063],[3.807468924132568,43.467227540925784],[3.478712830153686,43.31209524722461],[3.317868027297241,43.19595297427539],[3.067900213805419,42.944564424470705],[3.001891169158203,42.77080877871875],[3.045898947325927,42.53945501895313],[3.087081465331298,42.36864431949024],[2.936504158583862,42.40964087100391],[2.599267038909179,42.34814413638477],[2.581510099974853,42.28666266055469],[2.363173756209594,42.293494783357424],[2.171107086745483,42.38231619449024],[1.99367073496936,42.30715521426563],[1.876118454543334,42.31398733706836],[1.860095295516235,42.38231619449024],[1.709228429404479,42.42331274600391],[1.616605672446472,42.40964087100391],[1.448152098265869,42.37548025699024],[1.364396247473938,42.40964087100391],[1.348705086318237,42.53948172183399],[1.307450089064819,42.63517340274219],[0.744199428168518,42.77189215274219],[0.584142002669555,42.77189215274219],[0.591923627463562,42.628333650544924],[0.347843679991943,42.63517340274219],[0.196265372840148,42.607825838044924],[0.179550382701141,42.66251715274219],[-0.165626824440974,42.64883764834766],[-0.203663793,42.70031317325],[-0.216141254248637,42.717200838044924],[-0.409914609583634,42.785567842439455],[-0.46883657256009,42.75139196963672],[-0.586789485605973,42.765060029939455],[-0.611982133778351,42.73087652774219],[-0.840018358620423,42.90865286441211],[-0.907353666218537,42.881297670320315],[-1.397272315415162,43.031756959871096],[-1.44755240956189,42.98387869449024],[-1.515127864273804,42.997562013582034],[-1.557671156319397,43.04543264956836],[-1.465651359947937,43.15488775821094],[-1.491382804306763,43.20962103457813],[-1.702391829880494,43.19593771548633],[-1.914577808769959,43.3054157123125],[-1.746070232781189,43.36016043277149],[-1.561407771500367,43.524425111726565],[-1.314379182251709,44.558963380769534],[-1.135849919708985,44.600101076082034]]]]}}]}